[{"OBJECT_NAME":"SAOCOM 1A","OBJECT_ID":"2018-076A","EPOCH":"2026-03-31T21:41:41.299872","MEAN_MOTION":14.82166643,"ECCENTRICITY":0.00014821,"INCLINATION":97.8902,"RA_OF_ASC_NODE":278.7634,"ARG_OF_PERICENTER":85.3417,"MEAN_ANOMALY":274.7966,"EPHEMERIS_TYPE":0,"CLASSIFICATION_TYPE":"U","NORAD_CAT_ID":43641,"ELEMENT_SET_NO":999,"REV_AT_EPOCH":40465,"BSTAR":0.00011430192,"MEAN_MOTION_DOT":8.58e-6,"MEAN_MOTION_DDOT":0},{"OBJECT_NAME":"H-2A R/B","OBJECT_ID":"2018-084L","EPOCH":"2026-04-01T04:30:25.374816","MEAN_MOTION":15.42318515,"ECCENTRICITY":0.0023507,"INCLINATION":98.87,"RA_OF_ASC_NODE":313.3988,"ARG_OF_PERICENTER":306.3863,"MEAN_ANOMALY":53.5211,"EPHEMERIS_TYPE":0,"CLASSIFICATION_TYPE":"U","NORAD_CAT_ID":43682,"ELEMENT_SET_NO":999,"REV_AT_EPOCH":40924,"BSTAR":0.00043581,"MEAN_MOTION_DOT":0.0001887,"MEAN_MOTION_DDOT":0},{"OBJECT_NAME":"SAOCOM 1B","OBJECT_ID":"2020-059A","EPOCH":"2026-04-01T04:55:33.340800","MEAN_MOTION":14.82144845,"ECCENTRICITY":0.0001417,"INCLINATION":97.8893,"RA_OF_ASC_NODE":278.1573,"ARG_OF_PERICENTER":88.9994,"MEAN_ANOMALY":271.1381,"EPHEMERIS_TYPE":0,"CLASSIFICATION_TYPE":"U","NORAD_CAT_ID":46265,"ELEMENT_SET_NO":999,"REV_AT_EPOCH":30208,"BSTAR":6.699e-5,"MEAN_MOTION_DOT":4.81e-6,"MEAN_MOTION_DDOT":0},{"OBJECT_NAME":"CSS (TIANHE)","OBJECT_ID":"2021-035A","EPOCH":"2026-03-31T20:22:04.014912","MEAN_MOTION":15.61775142,"ECCENTRICITY":0.00036816,"INCLINATION":41.4668,"RA_OF_ASC_NODE":73.2165,"ARG_OF_PERICENTER":84.3022,"MEAN_ANOMALY":275.8236,"EPHEMERIS_TYPE":0,"CLASSIFICATION_TYPE":"U","NORAD_CAT_ID":48274,"ELEMENT_SET_NO":999,"REV_AT_EPOCH":28107,"BSTAR":0.00031477275,"MEAN_MOTION_DOT":0.00027797,"MEAN_MOTION_DDOT":0},{"OBJECT_NAME":"COSMOS 2550","OBJECT_ID":"2021-056A","EPOCH":"2026-04-01T05:01:46.090272","MEAN_MOTION":15.33836758,"ECCENTRICITY":0.0008322,"INCLINATION":67.1443,"RA_OF_ASC_NODE":332.7629,"ARG_OF_PERICENTER":269.4777,"MEAN_ANOMALY":90.5424,"EPHEMERIS_TYPE":0,"CLASSIFICATION_TYPE":"U","NORAD_CAT_ID":48865,"ELEMENT_SET_NO":999,"REV_AT_EPOCH":26691,"BSTAR":0.0001856,"MEAN_MOTION_DOT":5.921e-5,"MEAN_MOTION_DDOT":0},{"OBJECT_NAME":"CZ-2C R/B","OBJECT_ID":"2022-058K","EPOCH":"2026-04-01T00:04:06.343680","MEAN_MOTION":15.55949413,"ECCENTRICITY":0.0041332,"INCLINATION":50.188,"RA_OF_ASC_NODE":203.3672,"ARG_OF_PERICENTER":296.5787,"MEAN_ANOMALY":63.0952,"EPHEMERIS_TYPE":0,"CLASSIFICATION_TYPE":"U","NORAD_CAT_ID":52794,"ELEMENT_SET_NO":999,"REV_AT_EPOCH":21360,"BSTAR":0.00061029,"MEAN_MOTION_DOT":0.00044686,"MEAN_MOTION_DDOT":0},{"OBJECT_NAME":"CZ-2C R/B","OBJECT_ID":"2022-132E","EPOCH":"2026-03-31T23:21:30.018240","MEAN_MOTION":15.63963816,"ECCENTRICITY":0.00168526,"INCLINATION":97.295,"RA_OF_ASC_NODE":95.0015,"ARG_OF_PERICENTER":17.6814,"MEAN_ANOMALY":342.5028,"EPHEMERIS_TYPE":0,"CLASSIFICATION_TYPE":"U","NORAD_CAT_ID":54039,"ELEMENT_SET_NO":999,"REV_AT_EPOCH":19385,"BSTAR":0.00051403892,"MEAN_MOTION_DOT":0.00048817,"MEAN_MOTION_DDOT":0},{"OBJECT_NAME":"GSLV R/B","OBJECT_ID":"2022-138AN","EPOCH":"2026-04-01T04:23:46.987872","MEAN_MOTION":14.96915376,"ECCENTRICITY":0.002394,"INCLINATION":87.3855,"RA_OF_ASC_NODE":158.8315,"ARG_OF_PERICENTER":72.6423,"MEAN_ANOMALY":287.7425,"EPHEMERIS_TYPE":0,"CLASSIFICATION_TYPE":"U","NORAD_CAT_ID":54149,"ELEMENT_SET_NO":999,"REV_AT_EPOCH":18729,"BSTAR":0.00025929,"MEAN_MOTION_DOT":3.021e-5,"MEAN_MOTION_DDOT":0},{"OBJECT_NAME":"XRISM","OBJECT_ID":"2023-137A","EPOCH":"2026-03-31T11:55:47.966880","MEAN_MOTION":15.11758652,"ECCENTRICITY":0.00079152,"INCLINATION":31.0015,"RA_OF_ASC_NODE":142.5846,"ARG_OF_PERICENTER":258.4497,"MEAN_ANOMALY":101.5253,"EPHEMERIS_TYPE":0,"CLASSIFICATION_TYPE":"U","NORAD_CAT_ID":57800,"ELEMENT_SET_NO":999,"REV_AT_EPOCH":14109,"BSTAR":0.00042231762,"MEAN_MOTION_DOT":7.486e-5,"MEAN_MOTION_DDOT":0},{"OBJECT_NAME":"ACS3","OBJECT_ID":"2024-077B","EPOCH":"2026-04-01T02:22:20.803296","MEAN_MOTION":13.90692249,"ECCENTRICITY":0.0073098,"INCLINATION":97.1961,"RA_OF_ASC_NODE":27.1742,"ARG_OF_PERICENTER":25.8569,"MEAN_ANOMALY":334.622,"EPHEMERIS_TYPE":0,"CLASSIFICATION_TYPE":"U","NORAD_CAT_ID":59588,"ELEMENT_SET_NO":999,"REV_AT_EPOCH":9731,"BSTAR":0.028903,"MEAN_MOTION_DOT":0.00036993,"MEAN_MOTION_DDOT":0},{"OBJECT_NAME":"HTV-X1","OBJECT_ID":"2025-241A","EPOCH":"2026-04-01T03:33:39.148128","MEAN_MOTION":15.3248749,"ECCENTRICITY":0.0007212,"INCLINATION":51.6375,"RA_OF_ASC_NODE":324.8235,"ARG_OF_PERICENTER":259.7881,"MEAN_ANOMALY":100.2287,"EPHEMERIS_TYPE":0,"CLASSIFICATION_TYPE":"U","NORAD_CAT_ID":66174,"ELEMENT_SET_NO":999,"REV_AT_EPOCH":2438,"BSTAR":4.2398e-5,"MEAN_MOTION_DOT":9.78e-6,"MEAN_MOTION_DDOT":0},{"OBJECT_NAME":"SZ-21 MODULE","OBJECT_ID":"2025-246C","EPOCH":"2026-04-01T05:13:49.755936","MEAN_MOTION":15.70344798,"ECCENTRICITY":0.0002466,"INCLINATION":41.4742,"RA_OF_ASC_NODE":64.4975,"ARG_OF_PERICENTER":219.0521,"MEAN_ANOMALY":141.0144,"EPHEMERIS_TYPE":0,"CLASSIFICATION_TYPE":"U","NORAD_CAT_ID":66515,"ELEMENT_SET_NO":999,"REV_AT_EPOCH":2161,"BSTAR":0.00033315,"MEAN_MOTION_DOT":0.00041753,"MEAN_MOTION_DDOT":0}]
