SAOCOM 1A               
1 43641U 18076A   26090.90395023  .00000858  00000+0  11430-3 0  9990
2 43641  97.8902 278.7634 0001482  85.3417 274.7966 14.82166643404656
H-2A R/B                
1 43682U 18084L   26091.18779369  .00018870  00000+0  43581-3 0  9999
2 43682  98.8700 313.3988 0023507 306.3863  53.5211 15.42318515409249
SAOCOM 1B               
1 46265U 20059A   26091.20524700  .00000481  00000+0  66990-4 0  9993
2 46265  97.8893 278.1573 0001417  88.9994 271.1381 14.82144845302089
CSS (TIANHE)            
1 48274U 21035A   26090.84865758  .00027797  00000+0  31477-3 0  9990
2 48274  41.4668  73.2165 0003681  84.3022 275.8236 15.61775142281077
COSMOS 2550             
1 48865U 21056A   26091.20956123  .00005921  00000+0  18560-3 0  9990
2 48865  67.1443 332.7629 0008322 269.4777  90.5424 15.33836758266914
CZ-2C R/B               
1 52794U 22058K   26091.00285120  .00044686  00000+0  61029-3 0  9998
2 52794  50.1880 203.3672 0041332 296.5787  63.0952 15.55949413213604
CZ-2C R/B               
1 54039U 22132E   26090.97326410  .00048817  00000+0  51404-3 0  9994
2 54039  97.2950  95.0015 0016852  17.6814 342.5028 15.63963816193852
GSLV R/B                
1 54149U 22138AN  26091.18318273  .00003021  00000+0  25929-3 0  9995
2 54149  87.3855 158.8315 0023940  72.6423 287.7425 14.96915376187297
XRISM                   
1 57800U 23137A   26090.49708295  .00007486  00000+0  42232-3 0  9997
2 57800  31.0015 142.5846 0007915 258.4497 101.5253 15.11758652141096
ACS3                    
1 59588U 24077B   26091.09885189  .00036993  00000+0  28903-1 0  9993
2 59588  97.1961  27.1742 0073098  25.8569 334.6220 13.90692249 97310
HTV-X1                  
1 66174U 25241A   26091.14836977  .00000978  00000+0  42398-4 0  9994
2 66174  51.6375 324.8235 0007212 259.7881 100.2287 15.32487490 24382
SZ-21 MODULE            
1 66515U 25246C   26091.21793699  .00041753  00000+0  33315-3 0  9993
2 66515  41.4742  64.4975 0002466 219.0521 141.0144 15.70344798 21613
